[{"OBJECT_NAME":"STARLINK-30945","OBJECT_ID":"2024-019X","EPOCH":"2026-03-09T12:20:52.075104","MEAN_MOTION":15.27576786,"ECCENTRICITY":0.00011418,"INCLINATION":42.9976,"RA_OF_ASC_NODE":250.0661,"ARG_OF_PERICENTER":279.3375,"MEAN_ANOMALY":80.7347,"EPHEMERIS_TYPE":0,"CLASSIFICATION_TYPE":"U","NORAD_CAT_ID":58874,"ELEMENT_SET_NO":999,"REV_AT_EPOCH":11905,"BSTAR":1.4061112e-5,"MEAN_MOTION_DOT":1.25e-6,"MEAN_MOTION_DDOT":0},{"OBJECT_NAME":"LIZZIESAT-1 (LS-1)","OBJECT_ID":"2024-043AL","EPOCH":"2026-03-09T21:24:55.126944","MEAN_MOTION":15.26635712,"ECCENTRICITY":0.00099234,"INCLINATION":97.5461,"RA_OF_ASC_NODE":203.4772,"ARG_OF_PERICENTER":229.9925,"MEAN_ANOMALY":130.0443,"EPHEMERIS_TYPE":0,"CLASSIFICATION_TYPE":"U","NORAD_CAT_ID":59132,"ELEMENT_SET_NO":999,"REV_AT_EPOCH":11178,"BSTAR":0.0002232873,"MEAN_MOTION_DOT":5.784e-5,"MEAN_MOTION_DDOT":0}]
