STARLINK-30945          
1 58874U 24019X   26068.51449161  .00000125  00000+0  14061-4 0  9994
2 58874  42.9976 250.0661 0001141 279.3375  80.7347 15.27576786119053
LIZZIESAT-1 (LS-1)      
1 59132U 24043AL  26068.89230471  .00005784  00000+0  22329-3 0  9993
2 59132  97.5461 203.4772 0009923 229.9925 130.0443 15.26635711111780
